HULIANWANG DIGUI 18D    
1 67438U 26007D   26016.27251356 -.00000115  00000+0  24401-4 0  9991
2 67438  50.0061 283.9771 0008977 273.1225  86.8647 13.91900226   374
HULIANWANG DIGUI 18E    
1 67439U 26007E   26016.41556999 -.00000030  00000+0  90397-4 0  9992
2 67439  50.0058 283.3997 0006779 272.2362  87.7761 13.92169320   397
HULIANWANG DIGUI 18F    
1 67440U 26007F   26017.06129983 -.00000110  00000+0  28443-4 0  9997
2 67440  50.0120 280.8266 0007619 283.4879  76.5172 13.92298322   488
HULIANWANG DIGUI 18G    
1 67441U 26007G   26017.13300565 -.00000110  00000+0  28851-4 0  9996
2 67441  50.0100 280.5370 0006355 280.0062  80.0121 13.92327491   498
HULIANWANG DIGUI 18H    
1 67442U 26007H   26017.13285697 -.00000221  00000+0 -56928-4 0  9995
2 67442  50.0088 280.5350 0007483 290.1566  69.8529 13.92384124   499
HULIANWANG DIGUI 18J    
1 67443U 26007J   26017.13247141 -.00000110  00000+0  28934-4 0  9990
2 67443  50.0090 280.5336 0006103 288.6914  71.3323 13.92552423   493
CZ-8A R/B               
1 67444U 26007K   26017.15242301 -.00000234  00000+0 -39236-4 0  9991
2 67444  50.0118 279.9769 0092137  95.1432 266.0000 14.13545021   490
ALSAT-3A                
1 67474U 26009A   26017.31339769  .00006476  00000+0  27481-3 0  9999
2 67474  97.4728  92.0802 0011404 260.9109  99.0837 15.23386839   335
CZ-2C R/B               
1 67475U 26009B   26017.27574924  .00004253  00000+0  28913-3 0  9991
2 67475  97.1816  91.5842 0098970 215.6234 143.8361 15.02879221   326
