CCSDS_OMM_VERS = 2.0
CREATION_DATE  = 
ORIGINATOR     = 

OBJECT_NAME    = HULIANWANG DIGUI 18D
OBJECT_ID      = 2026-007D
CENTER_NAME    = EARTH
REF_FRAME      = TEME
TIME_SYSTEM    = UTC
MEAN_ELEMENT_THEORY = SGP/SGP4

EPOCH          = 2026-01-16T06:32:25.171584
MEAN_MOTION    = 13.91900226
ECCENTRICITY   = .00089774
INCLINATION    = 50.0061
RA_OF_ASC_NODE = 283.9771
ARG_OF_PERICENTER = 273.1225
MEAN_ANOMALY   = 86.8647

EPHEMERIS_TYPE = 0
CLASSIFICATION_TYPE = U
NORAD_CAT_ID   = 67438
ELEMENT_SET_NO = 999
REV_AT_EPOCH   = 37
BSTAR          = .2440121E-4
MEAN_MOTION_DOT = -.115E-5
MEAN_MOTION_DDOT = 0

CCSDS_OMM_VERS = 2.0
CREATION_DATE  = 
ORIGINATOR     = 

OBJECT_NAME    = HULIANWANG DIGUI 18E
OBJECT_ID      = 2026-007E
CENTER_NAME    = EARTH
REF_FRAME      = TEME
TIME_SYSTEM    = UTC
MEAN_ELEMENT_THEORY = SGP/SGP4

EPOCH          = 2026-01-16T09:58:25.247136
MEAN_MOTION    = 13.92169320
ECCENTRICITY   = .00067796
INCLINATION    = 50.0058
RA_OF_ASC_NODE = 283.3997
ARG_OF_PERICENTER = 272.2362
MEAN_ANOMALY   = 87.7761

EPHEMERIS_TYPE = 0
CLASSIFICATION_TYPE = U
NORAD_CAT_ID   = 67439
ELEMENT_SET_NO = 999
REV_AT_EPOCH   = 39
BSTAR          = .90396705E-4
MEAN_MOTION_DOT = -.3E-6
MEAN_MOTION_DDOT = 0

CCSDS_OMM_VERS = 2.0
CREATION_DATE  = 
ORIGINATOR     = 

OBJECT_NAME    = HULIANWANG DIGUI 18F
OBJECT_ID      = 2026-007F
CENTER_NAME    = EARTH
REF_FRAME      = TEME
TIME_SYSTEM    = UTC
MEAN_ELEMENT_THEORY = SGP/SGP4

EPOCH          = 2026-01-17T01:28:16.305312
MEAN_MOTION    = 13.92298322
ECCENTRICITY   = .0007619
INCLINATION    = 50.0120
RA_OF_ASC_NODE = 280.8266
ARG_OF_PERICENTER = 283.4879
MEAN_ANOMALY   = 76.5172

EPHEMERIS_TYPE = 0
CLASSIFICATION_TYPE = U
NORAD_CAT_ID   = 67440
ELEMENT_SET_NO = 999
REV_AT_EPOCH   = 48
BSTAR          = .28443406E-4
MEAN_MOTION_DOT = -.11E-5
MEAN_MOTION_DDOT = 0

CCSDS_OMM_VERS = 2.0
CREATION_DATE  = 
ORIGINATOR     = 

OBJECT_NAME    = HULIANWANG DIGUI 18G
OBJECT_ID      = 2026-007G
CENTER_NAME    = EARTH
REF_FRAME      = TEME
TIME_SYSTEM    = UTC
MEAN_ELEMENT_THEORY = SGP/SGP4

EPOCH          = 2026-01-17T03:11:31.688160
MEAN_MOTION    = 13.92327491
ECCENTRICITY   = .00063555
INCLINATION    = 50.0100
RA_OF_ASC_NODE = 280.5370
ARG_OF_PERICENTER = 280.0062
MEAN_ANOMALY   = 80.0121

EPHEMERIS_TYPE = 0
CLASSIFICATION_TYPE = U
NORAD_CAT_ID   = 67441
ELEMENT_SET_NO = 999
REV_AT_EPOCH   = 49
BSTAR          = .28851184E-4
MEAN_MOTION_DOT = -.11E-5
MEAN_MOTION_DDOT = 0

CCSDS_OMM_VERS = 2.0
CREATION_DATE  = 
ORIGINATOR     = 

OBJECT_NAME    = HULIANWANG DIGUI 18H
OBJECT_ID      = 2026-007H
CENTER_NAME    = EARTH
REF_FRAME      = TEME
TIME_SYSTEM    = UTC
MEAN_ELEMENT_THEORY = SGP/SGP4

EPOCH          = 2026-01-17T03:11:18.842208
MEAN_MOTION    = 13.92384124
ECCENTRICITY   = .00074834
INCLINATION    = 50.0088
RA_OF_ASC_NODE = 280.5350
ARG_OF_PERICENTER = 290.1566
MEAN_ANOMALY   = 69.8529

EPHEMERIS_TYPE = 0
CLASSIFICATION_TYPE = U
NORAD_CAT_ID   = 67442
ELEMENT_SET_NO = 999
REV_AT_EPOCH   = 49
BSTAR          = -.56927548E-4
MEAN_MOTION_DOT = -.221E-5
MEAN_MOTION_DDOT = 0

CCSDS_OMM_VERS = 2.0
CREATION_DATE  = 
ORIGINATOR     = 

OBJECT_NAME    = HULIANWANG DIGUI 18J
OBJECT_ID      = 2026-007J
CENTER_NAME    = EARTH
REF_FRAME      = TEME
TIME_SYSTEM    = UTC
MEAN_ELEMENT_THEORY = SGP/SGP4

EPOCH          = 2026-01-17T03:10:45.529824
MEAN_MOTION    = 13.92552423
ECCENTRICITY   = .00061038
INCLINATION    = 50.0090
RA_OF_ASC_NODE = 280.5336
ARG_OF_PERICENTER = 288.6914
MEAN_ANOMALY   = 71.3323

EPHEMERIS_TYPE = 0
CLASSIFICATION_TYPE = U
NORAD_CAT_ID   = 67443
ELEMENT_SET_NO = 999
REV_AT_EPOCH   = 49
BSTAR          = .28934181E-4
MEAN_MOTION_DOT = -.11E-5
MEAN_MOTION_DDOT = 0

CCSDS_OMM_VERS = 2.0
CREATION_DATE  = 
ORIGINATOR     = 

OBJECT_NAME    = CZ-8A R/B
OBJECT_ID      = 2026-007K
CENTER_NAME    = EARTH
REF_FRAME      = TEME
TIME_SYSTEM    = UTC
MEAN_ELEMENT_THEORY = SGP/SGP4

EPOCH          = 2026-01-17T03:39:29.348064
MEAN_MOTION    = 14.13545021
ECCENTRICITY   = .0092137
INCLINATION    = 50.0118
RA_OF_ASC_NODE = 279.9769
ARG_OF_PERICENTER = 95.1432
MEAN_ANOMALY   = 266.0000

EPHEMERIS_TYPE = 0
CLASSIFICATION_TYPE = U
NORAD_CAT_ID   = 67444
ELEMENT_SET_NO = 999
REV_AT_EPOCH   = 49
BSTAR          = -.3923576E-4
MEAN_MOTION_DOT = -.234E-5
MEAN_MOTION_DDOT = 0

CCSDS_OMM_VERS = 2.0
CREATION_DATE  = 
ORIGINATOR     = 

OBJECT_NAME    = ALSAT-3A
OBJECT_ID      = 2026-009A
CENTER_NAME    = EARTH
REF_FRAME      = TEME
TIME_SYSTEM    = UTC
MEAN_ELEMENT_THEORY = SGP/SGP4

EPOCH          = 2026-01-17T07:31:17.560416
MEAN_MOTION    = 15.23386839
ECCENTRICITY   = .00114045
INCLINATION    = 97.4728
RA_OF_ASC_NODE = 92.0802
ARG_OF_PERICENTER = 260.9109
MEAN_ANOMALY   = 99.0837

EPHEMERIS_TYPE = 0
CLASSIFICATION_TYPE = U
NORAD_CAT_ID   = 67474
ELEMENT_SET_NO = 999
REV_AT_EPOCH   = 33
BSTAR          = .27480539E-3
MEAN_MOTION_DOT = .6476E-4
MEAN_MOTION_DDOT = 0

CCSDS_OMM_VERS = 2.0
CREATION_DATE  = 
ORIGINATOR     = 

OBJECT_NAME    = CZ-2C R/B
OBJECT_ID      = 2026-009B
CENTER_NAME    = EARTH
REF_FRAME      = TEME
TIME_SYSTEM    = UTC
MEAN_ELEMENT_THEORY = SGP/SGP4

EPOCH          = 2026-01-17T06:37:04.734336
MEAN_MOTION    = 15.02879221
ECCENTRICITY   = .00989701
INCLINATION    = 97.1816
RA_OF_ASC_NODE = 91.5842
ARG_OF_PERICENTER = 215.6234
MEAN_ANOMALY   = 143.8361

EPHEMERIS_TYPE = 0
CLASSIFICATION_TYPE = U
NORAD_CAT_ID   = 67475
ELEMENT_SET_NO = 999
REV_AT_EPOCH   = 32
BSTAR          = .28912545E-3
MEAN_MOTION_DOT = .4253E-4
MEAN_MOTION_DDOT = 0

